KUIPER-00165            
1 65778U 25217S   25347.66679398 -.00935613  00000+0 -42988-1 0  9995
2 65778  51.8813  60.7892 0004955   2.5955  33.8323 15.22506203  5599
KUIPER-00166            
1 65779U 25217T   25347.61801642  .00046457  00000+0  11894-2 0  9990
2 65779  51.8723  59.8784 0003444 342.5760  17.5109 15.38935144 12183
KUIPER-00167            
1 65780U 25217U   25347.66679398 -.01198932  00000+0 -12035+0 0  9992
2 65780  51.8918  66.3504 0010896 347.2499 133.3218 14.93824619  1308
KUIPER-00168            
1 65781U 25217V   25347.66679398  .00075201  00000+0  19968-2 0  9998
2 65781  51.8714  59.3242 0001018  13.2417  55.7124 15.37601809  5399
KUIPER-00169            
1 65782U 25217W   25347.66679398  .00051068  00000+0  16510-2 0  9994
2 65782  51.8735  59.9556 0004976   3.3298 124.4640 15.31568195  5548
KUIPER-00170            
1 65783U 25217X   25347.66679398 -.01414037  00000+0 -76790-1 0  9992
2 65783  51.8834  61.9760 0009123  10.1824 211.1607 15.16996903  5833
KUIPER-00171            
1 65784U 25217Y   25347.56056174  .00180523  00000+0  14385-2 0  9993
2 65784  51.8585  52.0387 0010689  13.6341 346.4946 15.70014815 12282
KUIPER-00172            
1 65785U 25217Z   25347.66679398 -.00877012  00000+0 -27631-1 0  9999
2 65785  51.8737  59.4691 0005120   3.9983 346.9823 15.34973087  5195
KUIPER-00173            
1 65786U 25217AA  25347.66679398 -.01436017  00000+0 -56067-1 0  9992
2 65786  51.8759  60.0284 0003638 312.8938 108.7849 15.28676704  5900
KUIPER-00174            
1 65787U 25217AB  25347.59769203  .00038867  00000+0  10077-2 0  9990
2 65787  51.8731  59.7506 0002717 312.0826  47.9930 15.38634012 12188
KUIPER-00176            
1 65788U 25217AC  25347.66679398 -.01550081  00000+0 -14124+0 0  9998
2 65788  51.8900  64.4490 0003824 336.5878  15.5166 14.97942362  4907
KUIPER-00101            
1 65947U 25228A   25347.66679398 -.00061142  00000+0 -59314-2 0  9994
2 65947  51.8970  21.4493 0002297  38.0933  91.3445 14.92447511  4909
KUIPER-00113            
1 65948U 25228B   25347.54021173 -.00292367  00000+0 -17961-1 0  9990
2 65948  51.8860  19.2378 0004606  13.1589 346.9506 15.11050388 10506
KUIPER-00117            
1 65949U 25228C   25347.66679398 -.01397932  00000+0 -11903+0 0  9995
2 65949  51.8930  19.7649 0010370  24.0901  96.4160 15.00649452  5607
KUIPER-00121            
1 65950U 25228D   25347.66679398 -.00116377  00000+0 -54373-2 0  9999
2 65950  51.8849  17.2764 0006739  34.9351 325.2971 15.19753520  5708
KUIPER-00122            
1 65951U 25228E   25347.66679398 -.00017888  00000+0 -20732-2 0  9999
2 65951  51.8979  23.5608 0005167  54.3100 117.4397 14.84638800  5484
KUIPER-00123            
1 65952U 25228F   25347.66679398 -.00031940  00000+0 -38062-2 0  9990
2 65952  51.8997  23.5623 0006590  31.0334 335.7877 14.83808777  3830
KUIPER-00124            
1 65953U 25228G   25347.58336806 -.01592771  00000+0 -10229+0 0  9993
2 65953  51.8912  18.1332 0005649  39.5622   4.1971 15.11524911  5619
KUIPER-00125            
1 65954U 25228H   25347.48933204  .00073476  00000+0  20164-2 0  9993
2 65954  51.8807  16.8250 0006319  20.2725 339.8511 15.36575147 10532
KUIPER-00126            
1 65955U 25228J   25347.66679398 -.00175289  00000+0 -17685-1 0  9995
2 65955  51.8986  21.5074 0007230  39.0094 285.1724 14.91624340  1302
KUIPER-00127            
1 65956U 25228K   25347.58336806 -.00410833  00000+0 -31196-1 0  9991
2 65956  51.8935  20.0301 0006033  71.6260 126.8227 15.03886205  4903
KUIPER-00128            
1 65957U 25228L   25347.58336806  .00044394  00000+0  21554-2 0  9993
2 65957  51.8825  17.5350 0003924  27.2843 246.6731 15.18028613  5928
KUIPER-00129            
1 65958U 25228M   25347.66679398 -.00992004  00000+0 -31969-1 0  9991
2 65958  51.8815  15.9587 0005935   6.0330 267.5296 15.34157784  2983
KUIPER-00130            
1 65959U 25228N   25347.66679398 -.00758480  00000+0 -29766-1 0  9992
2 65959  51.8826  16.5268 0006905  31.8803 322.8276 15.27590465  3217
KUIPER-00134            
1 65960U 25228P   25347.30820504  .00056743  00000+0  15932-2 0  9994
2 65960  51.8774  17.8547 0005591  35.2879 324.8477 15.35984231 10508
KUIPER-00135            
1 65961U 25228Q   25347.66679398 -.01423646  00000+0 -62633-1 0  9999
2 65961  51.8865  16.6726 0006683   9.7723 250.6505 15.24705553  5668
KUIPER-00136            
1 65962U 25228R   25346.32696814  .00054287  00000+0  16334-2 0  9990
2 65962  51.8802  22.5265 0005623  11.4646 348.6467 15.33829149 10356
KUIPER-00137            
1 65963U 25228S   25347.37326780  .00061465  00000+0  16281-2 0  9996
2 65963  51.8815  17.5566 0005615 295.8814  64.1594 15.37756984 10514
KUIPER-00138            
1 65964U 25228T   25347.37728385  .00059448  00000+0  16682-2 0  9997
2 65964  51.8799  17.5712 0008053  32.1044 328.0431 15.35965158 10510
KUIPER-00140            
1 65965U 25228U   25347.38647503  .00084260  00000+0  24062-2 0  9992
2 65965  51.8806  17.6364 0007845  25.9707 334.1671 15.35258574 10519
KUIPER-00141            
1 65966U 25228V   25347.35859446  .00053929  00000+0  14897-2 0  9994
2 65966  51.8798  17.4499 0006143  20.9055 339.2182 15.36513347 10514
KUIPER-00146            
1 65967U 25228W   25347.50003142 -.00440710  00000+0 -13447-1 0  9995
2 65967  51.8815  16.9076 0011673  15.8607 344.2742 15.35097402 10538
KUIPER-00149            
1 65968U 25228X   25347.48628031  .00043624  00000+0  12254-2 0  9990
2 65968  51.8823  16.8096 0006012  18.5502 341.5703 15.36086937 10533
KUIPER-00154            
1 65969U 25228Y   25347.55571758  .00033182  00000+0  93949-3 0  9991
2 65969  51.8800  16.5212 0006346   9.7034 350.4074 15.35965578 10545
KUIPER-00157            
1 65970U 25228Z   25347.30876321 -.01773588  00000+0 -56759-1 0  9990
2 65970  51.8811  17.8730 0018135 110.4881 249.8054 15.34884516 10503
